{"type": "FeatureCollection", "features": [ {"type": "Feature", "properties": {"norad_id": 55830, "name": "ONEWEB-0671", "group": "active", "lat": -74.89551366926572, "lon": -23.357033931072362, "alt_km": 1194.643301672896, "timestamp": "2025-12-01T03:58:49.266559+00:00", "meta": {"OBJECT_NAME": "ONEWEB-0671", "OBJECT_ID": "2023-029AL", "EPOCH": "2025-11-30T17:26:32.980704", "MEAN_MOTION": 13.19724908, "ECCENTRICITY": 0.0001978, "INCLINATION": 87.9194, "RA_OF_ASC_NODE": 344.4703, "ARG_OF_PERICENTER": 92.5924, "MEAN_ANOMALY": 267.5435, "EPHEMERIS_TYPE": 0, "CLASSIFICATION_TYPE": "U", "NORAD_CAT_ID": 55830, "ELEMENT_SET_NO": 999, "REV_AT_EPOCH": 13272, "BSTAR": 0.00016181, "MEAN_MOTION_DOT": 7.8e-07, "MEAN_MOTION_DDOT": 0, "GROUP": "active"}, "tle": {"line1": "1 55830U 23029AL  25334.72677061  .00000078  00000+0  16181-3 0  9994", "line2": "2 55830  87.9194 344.4703 0001978  92.5924 267.5435 13.19724908132723"}}, "geometry": {"type": "Point", "coordinates": [-23.357033931072362, -74.89551366926572]}}, {"type": "Feature", "properties": {"norad_id": 55831, "name": "ONEWEB-0672", "group": "active", "lat": 62.13201037991635, "lon": 129.98306425586753, "alt_km": 1174.7974801958371, "timestamp": "2025-12-01T03:58:49.266569+00:00", "meta": {"OBJECT_NAME": "ONEWEB-0672", "OBJECT_ID": "2023-029AM", "EPOCH": "2025-11-30T16:28:38.720064", "MEAN_MOTION": 13.20773738, "ECCENTRICITY": 0.0001548, "INCLINATION": 87.9183, "RA_OF_ASC_NODE": 314.0227, "ARG_OF_PERICENTER": 86.3659, "MEAN_ANOMALY": 273.7651, "EPHEMERIS_TYPE": 0, "CLASSIFICATION_TYPE": "U", "NORAD_CAT_ID": 55831, "ELEMENT_SET_NO": 999, "REV_AT_EPOCH": 13494, "BSTAR": 0.00025625, "MEAN_MOTION_DOT": 1.17e-06, "MEAN_MOTION_DDOT": 0, "GROUP": "active"}, "tle": {"line1": "1 55831U 23029AM  25334.68655926  .00000117  00000+0  25625-3 0  9993", "line2": "2 55831  87.9183 314.0227 0001548  86.3659 273.7651 13.20773738134947"}}, "geometry": {"type": "Point", "coordinates": [129.98306425586753, 62.13201037991635]}}, {"type": "Feature", "properties": {"norad_id": 55832, "name": "ONEWEB-0673", "group": "active", "lat": 35.06046441373691, "lon": -14.178148631271874, "alt_km": 1183.021594783203, "timestamp": "2025-12-01T03:58:49.266579+00:00", "meta": {"OBJECT_NAME": "ONEWEB-0673", "OBJECT_ID": "2023-029AN", "EPOCH": "2025-11-30T18:42:16.597728", "MEAN_MOTION": 13.19650406, "ECCENTRICITY": 0.0001554, "INCLINATION": 87.921, "RA_OF_ASC_NODE": 344.438, "ARG_OF_PERICENTER": 90.9453, "MEAN_ANOMALY": 269.1858, "EPHEMERIS_TYPE": 0, "CLASSIFICATION_TYPE": "U", "NORAD_CAT_ID": 55832, "ELEMENT_SET_NO": 999, "REV_AT_EPOCH": 13273, "BSTAR": 1.3284e-05, "MEAN_MOTION_DOT": 1.8e-07, "MEAN_MOTION_DDOT": 0, "GROUP": "active"}, "tle": {"line1": "1 55832U 23029AN  25334.77935877  .00000018  00000+0  13284-4 0  9999", "line2": "2 55832  87.9210 344.4380 0001554  90.9453 269.1858 13.19650406132733"}}, "geometry": {"type": "Point", "coordinates": [-14.178148631271874, 35.06046441373691]}}, {"type": "Feature", "properties": {"norad_id": 55833, "name": "ONEWEB-0674", "group": "active", "lat": -27.098024859274155, "lon": 150.26303850073685, "alt_km": 1211.961565330721, "timestamp": "2025-12-01T03:58:49.266590+00:00", "meta": {"OBJECT_NAME": "ONEWEB-0674", "OBJECT_ID": "2023-029AP", "EPOCH": "2025-11-30T17:47:47.494752", "MEAN_MOTION": 13.14502389, "ECCENTRICITY": 0.0002032, "INCLINATION": 87.8976, "RA_OF_ASC_NODE": 329.2706, "ARG_OF_PERICENTER": 100.4144, "MEAN_ANOMALY": 259.7215, "EPHEMERIS_TYPE": 0, "CLASSIFICATION_TYPE": "U", "NORAD_CAT_ID": 55833, "ELEMENT_SET_NO": 999, "REV_AT_EPOCH": 13334, "BSTAR": 0.00046729, "MEAN_MOTION_DOT": 1.86e-06, "MEAN_MOTION_DDOT": 0, "GROUP": "active"}, "tle": {"line1": "1 55833U 23029AP  25334.74152193  .00000186  00000+0  46729-3 0  9994", "line2": "2 55833  87.8976 329.2706 0002032 100.4144 259.7215 13.14502389133342"}}, "geometry": {"type": "Point", "coordinates": [150.26303850073685, -27.098024859274155]}}, {"type": "Feature", "properties": {"norad_id": 55834, "name": "ONEWEB-0675", "group": "active", "lat": -37.54947911108285, "lon": -17.209350638297444, "alt_km": 1192.7646556739064, "timestamp": "2025-12-01T03:58:49.266600+00:00", "meta": {"OBJECT_NAME": "ONEWEB-0675", "OBJECT_ID": "2023-029AQ", "EPOCH": "2025-11-30T19:04:20.512704", "MEAN_MOTION": 13.19723389, "ECCENTRICITY": 0.0001619, "INCLINATION": 87.9191, "RA_OF_ASC_NODE": 344.4659, "ARG_OF_PERICENTER": 83.1506, "MEAN_ANOMALY": 276.9811, "EPHEMERIS_TYPE": 0, "CLASSIFICATION_TYPE": "U", "NORAD_CAT_ID": 55834, "ELEMENT_SET_NO": 999, "REV_AT_EPOCH": 13275, "BSTAR": 2.4639e-05, "MEAN_MOTION_DOT": 2.3e-07, "MEAN_MOTION_DDOT": 0, "GROUP": "active"}, "tle": {"line1": "1 55834U 23029AQ  25334.79468186  .00000023  00000+0  24639-4 0  9999", "line2": "2 55834  87.9191 344.4659 0001619  83.1506 276.9811 13.19723389132755"}}, "geometry": {"type": "Point", "coordinates": [-17.209350638297444, -37.54947911108285]}}, {"type": "Feature", "properties": {"norad_id": 55835, "name": "ONEWEB-0720", "group": "active", "lat": -0.11396751265393036, "lon": -15.614336193907771, "alt_km": 1188.5786313623757, "timestamp": "2025-12-01T03:58:49.266610+00:00", "meta": {"OBJECT_NAME": "ONEWEB-0720", "OBJECT_ID": "2023-029AR", "EPOCH": "2025-11-30T18:52:58.451232", "MEAN_MOTION": 13.19724098, "ECCENTRICITY": 0.0002147, "INCLINATION": 87.9192, "RA_OF_ASC_NODE": 344.4652, "ARG_OF_PERICENTER": 87.1025, "MEAN_ANOMALY": 273.0353, "EPHEMERIS_TYPE": 0, "CLASSIFICATION_TYPE": "U", "NORAD_CAT_ID": 55835, "ELEMENT_SET_NO": 999, "REV_AT_EPOCH": 13267, "BSTAR": 0.00013841, "MEAN_MOTION_DOT": 6.8e-07, "MEAN_MOTION_DDOT": 0, "GROUP": "active"}, "tle": {"line1": "1 55835U 23029AR  25334.78678763  .00000068  00000+0  13841-3 0  9994", "line2": "2 55835  87.9192 344.4652 0002147  87.1025 273.0353 13.19724098132675"}}, "geometry": {"type": "Point", "coordinates": [-15.614336193907771, -0.11396751265393036]}}, {"type": "Feature", "properties": {"norad_id": 55836, "name": "TIANHUI 6A", "group": "active", "lat": 23.922550958751387, "lon": -23.189383043532708, "alt_km": 888.1889581515643, "timestamp": "2025-12-01T03:58:49.266620+00:00", "meta": {"OBJECT_NAME": "TIANHUI 6A", "OBJECT_ID": "2023-030A", "EPOCH": "2025-11-30T21:00:38.627712", "MEAN_MOTION": 14.01347087, "ECCENTRICITY": 8.09e-05, "INCLINATION": 99.0161, "RA_OF_ASC_NODE": 340.5627, "ARG_OF_PERICENTER": 85.3334, "MEAN_ANOMALY": 274.7924, "EPHEMERIS_TYPE": 0, "CLASSIFICATION_TYPE": "U", "NORAD_CAT_ID": 55836, "ELEMENT_SET_NO": 999, "REV_AT_EPOCH": 13962, "BSTAR": 0.00029238, "MEAN_MOTION_DOT": 3.97e-06, "MEAN_MOTION_DDOT": 0, "GROUP": "active"}, "tle": {"line1": "1 55836U 23030A   25334.87544708  .00000397  00000+0  29238-3 0  9990", "line2": "2 55836  99.0161 340.5627 0000809  85.3334 274.7924 14.01347087139626"}}, "geometry": {"type": "Point", "coordinates": [-23.189383043532708, 23.922550958751387]}}, {"type": "Feature", "properties": {"norad_id": 55839, "name": "TIANHUI 6B", "group": "active", "lat": 24.189754221429666, "lon": -23.241423146852394, "alt_km": 887.7735094871614, "timestamp": "2025-12-01T03:58:49.266631+00:00", "meta": {"OBJECT_NAME": "TIANHUI 6B", "OBJECT_ID": "2023-030D", "EPOCH": "2025-11-30T21:00:34.074432", "MEAN_MOTION": 14.01348911, "ECCENTRICITY": 9.13e-05, "INCLINATION": 99.0163, "RA_OF_ASC_NODE": 340.5617, "ARG_OF_PERICENTER": 18.7624, "MEAN_ANOMALY": 341.3575, "EPHEMERIS_TYPE": 0, "CLASSIFICATION_TYPE": "U", "NORAD_CAT_ID": 55839, "ELEMENT_SET_NO": 999, "REV_AT_EPOCH": 13961, "BSTAR": 0.0002969, "MEAN_MOTION_DOT": 4.03e-06, "MEAN_MOTION_DDOT": 0, "GROUP": "active"}, "tle": {"line1": "1 55839U 23030D   25334.87539438  .00000403  00000+0  29690-3 0  9997", "line2": "2 55839  99.0163 340.5617 0000913  18.7624 341.3575 14.01348911139617"}}, "geometry": {"type": "Point", "coordinates": [-23.241423146852394, 24.189754221429666]}}, {"type": "Feature", "properties": {"norad_id": 55841, "name": "LUCH-5X (OLYMP-K 2)", "group": "active", "lat": 0.013298895300084585, "lon": -168.05001213631493, "alt_km": 35789.24755475356, "timestamp": "2025-12-01T03:58:49.266643+00:00", "meta": {"OBJECT_NAME": "LUCH-5X (OLYMP-K 2)", "OBJECT_ID": "2023-031A", "EPOCH": "2025-11-30T14:08:20.330016", "MEAN_MOTION": 1.00271247, "ECCENTRICITY": 9.13e-05, "INCLINATION": 0.0449, "RA_OF_ASC_NODE": 87.7168, "ARG_OF_PERICENTER": 321.9225, "MEAN_ANOMALY": 294.1462, "EPHEMERIS_TYPE": 0, "CLASSIFICATION_TYPE": "U", "NORAD_CAT_ID": 55841, "ELEMENT_SET_NO": 999, "REV_AT_EPOCH": 994, "BSTAR": 0, "MEAN_MOTION_DOT": 5.5e-07, "MEAN_MOTION_DDOT": 0, "GROUP": "active"}, "tle": {"line1": "1 55841U 23031A   25334.58912419  .00000055  00000+0  00000+0 0  9996", "line2": "2 55841   0.0449  87.7168 0000913 321.9225 294.1462  1.00271247  9940"}}, "geometry": {"type": "Point", "coordinates": [-168.05001213631493, 0.013298895300084585]}}, {"type": "Feature", "properties": {"norad_id": 55844, "name": "HORUS 2", "group": "active", "lat": 82.01288750398605, "lon": -18.096126765661303, "alt_km": 486.1704771183213, "timestamp": "2025-12-01T03:58:49.266655+00:00", "meta": {"OBJECT_NAME": "HORUS 2", "OBJECT_ID": "2023-032A", "EPOCH": "2025-11-30T19:43:06.087936", "MEAN_MOTION": 15.23446053, "ECCENTRICITY": 0.0002693, "INCLINATION": 97.3763, "RA_OF_ASC_NODE": 48.9765, "ARG_OF_PERICENTER": 99.2562, "MEAN_ANOMALY": 260.8979, "EPHEMERIS_TYPE": 0, "CLASSIFICATION_TYPE": "U", "NORAD_CAT_ID": 55844, "ELEMENT_SET_NO": 999, "REV_AT_EPOCH": 15128, "BSTAR": 0.00036021, "MEAN_MOTION_DOT": 8.516e-05, "MEAN_MOTION_DDOT": 0, "GROUP": "active"}, "tle": {"line1": "1 55844U 23032A   25334.82159824  .00008516  00000+0  36021-3 0  9996", "line2": "2 55844  97.3763  48.9765 0002693  99.2562 260.8979 15.23446053151286"}}, "geometry": {"type": "Point", "coordinates": [-18.096126765661303, 82.01288750398605]}}]}